ONEWEB-0267             
1 48985U 21060U   25281.05883410 -.00001099  00000+0 -29079-2 0  9999
2 48985  87.8961 279.0104 0001709  96.1353 263.9973 13.16600015206417
ONEWEB-0268             
1 48986U 21060V   25281.25517060 -.00000054  00000+0 -17464-3 0  9993
2 48986  87.8970 278.9776 0001799  88.1481 271.9856 13.16593165206701
ONEWEB-0269             
1 48987U 21060W   25281.23618917  .00000010  00000+0 -82295-5 0  9992
2 48987  87.8958 279.0096 0001849  82.5526 277.5815 13.16596818206478
ONEWEB-0270             
1 48988U 21060X   25281.02560694 -.00000335  00000+0 -90917-3 0  9997
2 48988  87.8962 279.0260 0001926 103.1488 256.9858 13.16599673206481
ONEWEB-0271             
1 48989U 21060Y   25281.24092473 -.00000070  00000+0 -21620-3 0  9998
2 48989  87.8970 278.9663 0001658  96.7490 263.3830 13.16593094206515
ONEWEB-0272             
1 48990U 21060Z   25281.26309231  .00000012  00000+0 -26943-5 0  9995
2 48990  87.8962 278.9876 0001597  91.9877 268.1437 13.16593920206460
ONEWEB-0273             
1 48991U 21060AA  25281.28525399  .00000218  00000+0  53546-3 0  9997
2 48991  87.8965 278.9729 0001906  96.5791 263.5557 13.16597011206446
ONEWEB-0274             
1 48992U 21060AB  25281.23459805  .00000057  00000+0  11483-3 0  9996
2 48992  87.8958 279.0126 0001505  82.9195 277.2107 13.16593945206472
